ONEWEB-0080             
1 45426U 20020C   24296.52765682 -.00000560  00000+0 -16173-2 0  9991
2 45426  87.8906 141.1244 0001959  80.7242 279.4107 13.11414584223712
ONEWEB-0090             
1 45427U 20020D   24296.54463272 -.00000019  00000+0 -90375-4 0  9991
2 45427  87.8916 141.1098 0001628  80.0013 280.1299 13.11418671223681
ONEWEB-0061             
1 45428U 20020E   24296.65300628  .00000243  00000+0  65099-3 0  9990
2 45428  87.8905 141.0816 0001608  80.9963 279.1346 13.11413255223659
ONEWEB-0081             
1 45429U 20020F   24296.93968555  .00000422  00000+0  11562-2 0  9995
2 45429  87.8908 141.0429 0001682  88.1534 271.9787 13.11416741223808
ONEWEB-0069             
1 45430U 20020G   24296.92951100  .00000040  00000+0  78127-4 0  9992
2 45430  87.8910 141.0343 0001597  80.2179 279.9129 13.11417494223737
ONEWEB-0031             
1 45431U 20020H   24296.51918399 -.00000418  00000+0 -12164-2 0  9999
2 45431  87.8913 141.1309 0001506  83.0509 277.0790 13.11413364223669
ONEWEB-0027             
1 45432U 20020J   24296.90508946  .00000072  00000+0  15301-3 0  9997
2 45432  87.9073 125.8327 0001377  74.9793 285.1491 13.17650162227046
ONEWEB-0064             
1 45433U 20020K   24296.51749245 -.00000349  00000+0 -10215-2 0  9991
2 45433  87.8910 141.1345 0001555  78.4925 281.6378 13.11414069223691
